[{"OBJECT_NAME":"BANDWAGON-2 OBJECT D","OBJECT_ID":"2024-247D","EPOCH":"2026-03-09T12:32:33.670752","MEAN_MOTION":15.29076102,"ECCENTRICITY":0.00034883,"INCLINATION":44.9954,"RA_OF_ASC_NODE":115.671,"ARG_OF_PERICENTER":351.1453,"MEAN_ANOMALY":8.9368,"EPHEMERIS_TYPE":0,"CLASSIFICATION_TYPE":"U","NORAD_CAT_ID":62380,"ELEMENT_SET_NO":999,"REV_AT_EPOCH":6773,"BSTAR":0.00040119131,"MEAN_MOTION_DOT":0.00011259,"MEAN_MOTION_DDOT":0},{"OBJECT_NAME":"STARLINK-32418","OBJECT_ID":"2024-249W","EPOCH":"2026-03-09T02:20:02.663520","MEAN_MOTION":15.2759446,"ECCENTRICITY":0.0002836,"INCLINATION":43.0035,"RA_OF_ASC_NODE":317.363,"ARG_OF_PERICENTER":248.5584,"MEAN_ANOMALY":111.4966,"EPHEMERIS_TYPE":0,"CLASSIFICATION_TYPE":"U","NORAD_CAT_ID":62429,"ELEMENT_SET_NO":999,"REV_AT_EPOCH":6772,"BSTAR":0.0013582407,"MEAN_MOTION_DOT":0.00037322,"MEAN_MOTION_DDOT":0}]
